CTC1_L_00085016-03
1 66988U 22297ZH  26070.40832176  .00000000  00000+0  00000-0 0  9994
2 66988  55.0000 180.0000 0000000   0.0000   0.0000 14.79785908    17
CTC1_L_00085016-04
1 66989U 25644LA  26070.40832176  .00000000  00000+0  00000-0 0  9994
2 66989  55.0000 180.0000 0000000   0.0000  90.0000 14.79785908    17
CTC1_L_00085017-01
1 66990U 26366PC  26070.40832176  .00000000  00000+0  00000-0 0  9998
2 66990  55.0000 192.0000 0000000   0.0000 192.0000 14.79785908    15
CTC1_L_00085017-02
1 66991U 22799HH  26070.40832176  .00000000  00000+0  00000-0 0  9995
2 66991  55.0000 192.0000 0000000   0.0000 282.0000 14.79785908    16
CTC1_L_00085017-03
1 66992U 26056FH  26070.40832176  .00000000  00000+0  00000-0 0  9996
2 66992  55.0000 192.0000 0000000   0.0000  12.0000 14.79785908    18
CTC1_L_00085017-04
1 66993U 23265UM  26070.40832176  .00000000  00000+0  00000-0 0  9996
2 66993  55.0000 192.0000 0000000   0.0000 102.0000 14.79785908    19
CTC1_L_00085018-01
1 66994U 24360DM  26070.40832176  .00000000  00000+0  00000-0 0  9994
2 66994  55.0000 204.0000 0000000   0.0000 204.0000 14.79785908    17
CTC1_L_00085018-02
1 66995U 26504RW  26070.40832176  .00000000  00000+0  00000-0 0  9997
2 66995  55.0000 204.0000 0000000   0.0000 294.0000 14.79785908    17
CTC1_L_00085018-03
1 66996U 24016JM  26070.40832176  .00000000  00000+0  00000-0 0  9994
2 66996  55.0000 204.0000 0000000   0.0000  24.0000 14.79785908    19
CTC1_L_00085018-04
1 66997U 23317BF  26070.40832176  .00000000  00000+0  00000-0 0  9998
2 66997  55.0000 204.0000 0000000   0.0000 114.0000 14.79785908    10
CTC1_L_00085019-01
1 66998U 26925PT  26070.40832176  .00000000  00000+0  00000-0 0  9997
2 66998  55.0000 216.0000 0000000   0.0000 216.0000 14.79785908    17
CTC1_L_00085019-02
1 66999U 23396JY  26070.40832176  .00000000  00000+0  00000-0 0  9997
2 66999  55.0000 216.0000 0000000   0.0000 306.0000 14.79785908    18
CTC1_L_00085019-03
1 67000U 25113ZY  26070.40832176  .00000000  00000+0  00000-0 0  9990
2 67000  55.0000 216.0000 0000000   0.0000  36.0000 14.79785908    12
CTC1_L_00085019-04
1 67001U 26600SX  26070.40832176  .00000000  00000+0  00000-0 0  9993
2 67001  55.0000 216.0000 0000000   0.0000 126.0000 14.79785908    13
CTC1_L_00085020-01
1 67002U 26476TX  26070.40832176  .00000000  00000+0  00000-0 0  9995
2 67002  55.0000 228.0000 0000000   0.0000 228.0000 14.79785908    10
CTC1_L_00085020-02
1 67003U 26584MO  26070.40832176  .00000000  00000+0  00000-0 0  9996
2 67003  55.0000 228.0000 0000000   0.0000 318.0000 14.79785908    11
CTC1_L_00085020-03
1 67004U 22330SH  26070.40832176  .00000000  00000+0  00000-0 0  9992
2 67004  55.0000 228.0000 0000000   0.0000  48.0000 14.79785908    12
CTC1_L_00085020-04
1 67005U 25905YZ  26070.40832176  .00000000  00000+0  00000-0 0  9994
2 67005  55.0000 228.0000 0000000   0.0000 138.0000 14.79785908    13
CTC1_L_00085021-01
1 67006U 22751ME  26070.40832176  .00000000  00000+0  00000-0 0  9991
2 67006  55.0000 240.0000 0000000   0.0000 240.0000 14.79785908    12
CTC1_L_00085021-02
1 67007U 25011C   26070.40832176  .00000000  00000+0  00000-0 0  9994
2 67007  55.0000 240.0000 0000000   0.0000 330.0000 14.79785908    13
CTC1_L_00085021-03
1 67008U 23271QF  26070.40832176  .00000000  00000+0  00000-0 0  9991
2 67008  55.0000 240.0000 0000000   0.0000  60.0000 14.79785908    14
CTC1_L_00085021-04
1 67009U 26461NP  26070.40832176  .00000000  00000+0  00000-0 0  9996
2 67009  55.0000 240.0000 0000000   0.0000 150.0000 14.79785908    15
CTC1_L_00085022-01
1 67010U 25813D   26070.40832176  .00000000  00000+0  00000-0 0  9998
2 67010  55.0000 252.0000 0000000   0.0000 252.0000 14.79785908    13
CTC1_L_00085022-02
1 67011U 25466HA  26070.40832176  .00000000  00000+0  00000-0 0  9993
2 67011  55.0000 252.0000 0000000   0.0000 342.0000 14.79785908    14
CTC1_L_00085022-03
1 67012U 23790NS  26070.40832176  .00000000  00000+0  00000-0 0  9992
2 67012  55.0000 252.0000 0000000   0.0000  72.0000 14.79785908    15
CTC1_L_00085022-04
1 67013U 23424OZ  26070.40832176  .00000000  00000+0  00000-0 0  9997
2 67013  55.0000 252.0000 0000000   0.0000 162.0000 14.79785908    16
CTC1_L_00085023-01
1 67014U 25551TX  26070.40832176  .00000000  00000+0  00000-0 0  9991
2 67014  55.0000 264.0000 0000000   0.0000 264.0000 14.79785908    13
CTC1_L_00085023-02
1 67015U 24398JB  26070.40832176  .00000000  00000+0  00000-0 0  9990
2 67015  55.0000 264.0000 0000000   0.0000 354.0000 14.79785908    14
CTC1_L_00085023-03
1 67016U 22596VG  26070.40832176  .00000000  00000+0  00000-0 0  9999
2 67016  55.0000 264.0000 0000000   0.0000  84.0000 14.79785908    15
CTC1_L_00085023-04
1 67017U 24783OY  26070.40832176  .00000000  00000+0  00000-0 0  9990
2 67017  55.0000 264.0000 0000000   0.0000 174.0000 14.79785908    16
CTC1_L_00085024-01
1 67018U 24996YC  26070.40832176  .00000000  00000+0  00000-0 0  9997
2 67018  55.0000 276.0000 0000000   0.0000 276.0000 14.79785908    13
CTC1_L_00085024-02
1 67019U 25378EO  26070.40832176  .00000000  00000+0  00000-0 0  9993
2 67019  55.0000 276.0000 0000000   0.0000   6.0000 14.79785908    15
CTC1_L_00085024-03
1 67020U 24177XD  26070.40832176  .00000000  00000+0  00000-0 0  9991
2 67020  55.0000 276.0000 0000000   0.0000  96.0000 14.79785908    16
CTC1_L_00085024-04
1 67021U 24497YW  26070.40832176  .00000000  00000+0  00000-0 0  9997
2 67021  55.0000 276.0000 0000000   0.0000 186.0000 14.79785908    17
CTC1_L_00085025-01
1 67022U 22984TF  26070.40832176  .00000000  00000+0  00000-0 0  9997
2 67022  55.0000 288.0000 0000000   0.0000 288.0000 14.79785908    14
CTC1_L_00085025-02
1 67023U 22818AW  26070.40832176  .00000000  00000+0  00000-0 0  9994
2 67023  55.0000 288.0000 0000000   0.0000  18.0000 14.79785908    16
CTC1_L_00085025-03
1 67024U 24994ZM  26070.40832176  .00000000  00000+0  00000-0 0  9992
2 67024  55.0000 288.0000 0000000   0.0000 108.0000 14.79785908    17
CTC1_L_00085025-04
1 67025U 23825KI  26070.40832176  .00000000  00000+0  00000-0 0  9995
2 67025  55.0000 288.0000 0000000   0.0000 198.0000 14.79785908    17
CTC1_L_00085026-01
1 67026U 25821MK  26070.40832176  .00000000  00000+0  00000-0 0  9994
2 67026  55.0000 300.0000 0000000   0.0000 300.0000 14.79785908    18
CTC1_L_00085026-02
1 67027U 26460UY  26070.40832176  .00000000  00000+0  00000-0 0  9995
2 67027  55.0000 300.0000 0000000   0.0000  30.0000 14.79785908    19
CTC1_L_00085026-03
1 67028U 23548KP  26070.40832176  .00000000  00000+0  00000-0 0  9990
2 67028  55.0000 300.0000 0000000   0.0000 120.0000 14.79785908    10
CTC1_L_00085026-04
1 67029U 24768BO  26070.40832176  .00000000  00000+0  00000-0 0  9996
2 67029  55.0000 300.0000 0000000   0.0000 210.0000 14.79785908    11
CTC1_L_00085027-01
1 67030U 22680AT  26070.40832176  .00000000  00000+0  00000-0 0  9999
2 67030  55.0000 312.0000 0000000   0.0000 312.0000 14.79785908    19
CTC1_L_00085027-02
1 67031U 24133JJ  26070.40832176  .00000000  00000+0  00000-0 0  9995
2 67031  55.0000 312.0000 0000000   0.0000  42.0000 14.79785908    10
CTC1_L_00085027-03
1 67032U 26388IC  26070.40832176  .00000000  00000+0  00000-0 0  9990
2 67032  55.0000 312.0000 0000000   0.0000 132.0000 14.79785908    11
CTC1_L_00085027-04
1 67033U 23068UN  26070.40832176  .00000000  00000+0  00000-0 0  9993
2 67033  55.0000 312.0000 0000000   0.0000 222.0000 14.79785908    12
CTC1_L_00085028-01
1 67034U 24110UJ  26070.40832176  .00000000  00000+0  00000-0 0  9993
2 67034  55.0000 324.0000 0000000   0.0000 324.0000 14.79785908    19
CTC1_L_00085028-02
1 67035U 23780LF  26070.40832176  .00000000  00000+0  00000-0 0  9996
2 67035  55.0000 324.0000 0000000   0.0000  54.0000 14.79785908    10
CTC1_L_00085028-03
1 67036U 26431WH  26070.40832176  .00000000  00000+0  00000-0 0  9993
2 67036  55.0000 324.0000 0000000   0.0000 144.0000 14.79785908    11
CTC1_L_00085028-04
1 67037U 25278GQ  26070.40832176  .00000000  00000+0  00000-0 0  9992
2 67037  55.0000 324.0000 0000000   0.0000 234.0000 14.79785908    12
CTC1_L_00085029-01
1 67038U 22136AL  26070.40832176  .00000000  00000+0  00000-0 0  9993
2 67038  55.0000 336.0000 0000000   0.0000 336.0000 14.79785908    19
CTC1_L_00085029-02
1 67039U 24845PA  26070.40832176  .00000000  00000+0  00000-0 0  9993
2 67039  55.0000 336.0000 0000000   0.0000  66.0000 14.79785908    10
CTC1_L_00085029-03
1 67040U 24563NG  26070.40832176  .00000000  00000+0  00000-0 0  9992
2 67040  55.0000 336.0000 0000000   0.0000 156.0000 14.79785908    12
CTC1_L_00085029-04
1 67041U 24953LO  26070.40832176  .00000000  00000+0  00000-0 0  9996
2 67041  55.0000 336.0000 0000000   0.0000 246.0000 14.79785908    13
CTC1_L_00085030-01
1 67042U 24571WS  26070.40832176  .00000000  00000+0  00000-0 0  9993
2 67042  55.0000 348.0000 0000000   0.0000 348.0000 14.79785908    10
CTC1_L_00085030-02
1 67043U 23249NQ  26070.40832176  .00000000  00000+0  00000-0 0  9995
2 67043  55.0000 348.0000 0000000   0.0000  78.0000 14.79785908    11
CTC1_L_00085030-03
1 67044U 25685IP  26070.40832176  .00000000  00000+0  00000-0 0  9992
2 67044  55.0000 348.0000 0000000   0.0000 168.0000 14.79785908    12
CTC1_L_00085030-04
1 67045U 23312CR  26070.40832176  .00000000  00000+0  00000-0 0  9998
2 67045  55.0000 348.0000 0000000   0.0000 258.0000 14.79785908    13
